[{"OBJECT_NAME":"STARLINK-31407","OBJECT_ID":"2024-049V","EPOCH":"2026-03-09T05:13:00.926976","MEAN_MOTION":15.27577137,"ECCENTRICITY":0.00015334,"INCLINATION":42.9986,"RA_OF_ASC_NODE":134.9722,"ARG_OF_PERICENTER":280.0581,"MEAN_ANOMALY":80.0097,"EPHEMERIS_TYPE":0,"CLASSIFICATION_TYPE":"U","NORAD_CAT_ID":59250,"ELEMENT_SET_NO":999,"REV_AT_EPOCH":11245,"BSTAR":5.7445052e-5,"MEAN_MOTION_DOT":1.319e-5,"MEAN_MOTION_DDOT":0},{"OBJECT_NAME":"COSMOS 2251 DEB","OBJECT_ID":"1993-036AWN","EPOCH":"2026-03-09T06:26:08.321568","MEAN_MOTION":15.11257706,"ECCENTRICITY":0.00842289,"INCLINATION":74.0116,"RA_OF_ASC_NODE":284.5024,"ARG_OF_PERICENTER":350.308,"MEAN_ANOMALY":9.6482,"EPHEMERIS_TYPE":0,"CLASSIFICATION_TYPE":"U","NORAD_CAT_ID":35996,"ELEMENT_SET_NO":999,"REV_AT_EPOCH":73632,"BSTAR":0.00055219842,"MEAN_MOTION_DOT":0.00010085,"MEAN_MOTION_DDOT":0}]
